[{"OBJECT_NAME":"STARLINK-30246","OBJECT_ID":"2023-119P","EPOCH":"2026-03-09T22:00:01.999584","MEAN_MOTION":15.14425651,"ECCENTRICITY":8.476e-5,"INCLINATION":43.0007,"RA_OF_ASC_NODE":79.6807,"ARG_OF_PERICENTER":286.3854,"MEAN_ANOMALY":231.2681,"EPHEMERIS_TYPE":0,"CLASSIFICATION_TYPE":"U","NORAD_CAT_ID":57615,"ELEMENT_SET_NO":999,"REV_AT_EPOCH":557,"BSTAR":0.063371343,"MEAN_MOTION_DOT":0.01283812,"MEAN_MOTION_DDOT":0},{"OBJECT_NAME":"CERISE","OBJECT_ID":"1995-033B","EPOCH":"2026-03-09T23:11:27.589056","MEAN_MOTION":15.32047731,"ECCENTRICITY":0.00057118,"INCLINATION":98.325,"RA_OF_ASC_NODE":273.5192,"ARG_OF_PERICENTER":211.8754,"MEAN_ANOMALY":148.214,"EPHEMERIS_TYPE":0,"CLASSIFICATION_TYPE":"U","NORAD_CAT_ID":23606,"ELEMENT_SET_NO":999,"REV_AT_EPOCH":66468,"BSTAR":0.00062940675,"MEAN_MOTION_DOT":0.00019422,"MEAN_MOTION_DDOT":0}]
